#aV2023  8 20  0  0  0.00000000     288 DD+AD WGS84 FIT  NGA
## 2276      0.00000000   300.00000000 60176 0.0000000000000
+   32     1  2  3  4  5  6  7  8  9 10 11 12 13 14 15 16 17
+         18 19 20 21 22 23 24 25 26 27 28 29 30 31 32  0  0
+          0  0  0  0  0  0  0  0  0  0  0  0  0  0  0  0  0
+          0  0  0  0  0  0  0  0  0  0  0  0  0  0  0  0  0
+          0  0  0  0  0  0  0  0  0  0  0  0  0  0  0  0  0
++         2  2  2  2  2  2  2  2  2  2  2  2  2  2  2  2  2
++         2  2  2  2  2  2  2  2  2  2  2  2  2  2  2  0  0
++         0  0  0  0  0  0  0  0  0  0  0  0  0  0  0  0  0
++         0  0  0  0  0  0  0  0  0  0  0  0  0  0  0  0  0
++         0  0  0  0  0  0  0  0  0  0  0  0  0  0  0  0  0
%c cc cc ccc ccc cccc cccc cccc cccc ccccc ccccc ccccc ccccc
%c cc cc ccc ccc cccc cccc cccc cccc ccccc ccccc ccccc ccccc
%f  0.0000000  0.000000000  0.00000000000  0.000000000000000
%f  0.0000000  0.000000000  0.00000000000  0.000000000000000
%i    0    0    0    0      0      0      0      0         0
%i    0    0    0    0      0      0      0      0         0
/*      NGA, ST. LOUIS,MO.                                  
/*   EPHEMERIS COMPUTED FROM 2 DAYS OF DATA                 
/*   EPOCHA v8 SMOOTHER                                     
/*   G2139 IERS2010 SATIGS SATAPC                           
*  2023  8 20  7 10  0.00000000
P  1  14397.715501 -21375.130296   5281.181377    167.955286                    
V  1  -1249.389805   7404.402570  31679.005181     -0.013267                    
P  2  15930.415661 -17076.301882  12991.529999   -563.483840                    
V  2  -3556.766161  15476.649728  25868.099635      0.041865                    
P  3  16709.837674 -12497.946040 -16509.183165   -178.364190                    
V  3  20746.386803   -217.196234  21459.083985      0.186441                    
P  4   6412.849275 -15951.094487 -20203.154201    131.052218                    
V  4  14843.057025  21008.754659 -11986.480350      0.114485                    
P  5 -25979.015319   5139.976023   2490.485369   -139.496660                    
V  5  -3675.196990  -2075.531668 -31614.866271     -0.014636                    
P  6  -9652.907637 -12321.306234 -21381.633559    563.731941                    
V  6  12328.525713 -24286.210509   8494.022839     -0.054617                    
P  7   3597.514604 -24284.933657   9964.687743     90.717407                    
V  7   7962.891921  -9686.201393 -28271.681215     -0.107569                    
P  8  14558.059340  -5683.107088  21441.270237   -138.085321                    
V  8  16039.273089  22175.564317  -4604.667386     -0.018961                    
P  9  -2583.401993 -21680.760634 -15169.874059    -81.964280                    
V  9  12995.271168  14225.911000 -22707.583316      0.098690                    
P 10  15114.780820  11447.327251  18911.447159    -50.013724                    
V 10 -23311.377574   2937.493792  16702.695014     -0.015591                    
P 11 -16970.762138   1993.421225 -20308.966983   -329.157224                    
V 11  11238.678250 -23258.833021 -11714.566701     -0.175037                    
P 12 -20466.408177   9941.740074 -13910.853572   -415.022592                    
V 12 -17256.634573  -1825.756045  24644.785406     -0.044834                    
P 13 -17176.390909  -4027.969871  19731.102454    562.335800                    
V 13 -10562.304337 -23095.559972 -13569.071439      0.047036                    
P 14 -11482.158874 -13612.120945  19776.629176    159.551952                    
V 14  24958.956078  -2568.146020  12572.954063      0.116140                    
P 15 -13419.287876   8311.855646  20905.377322     69.358020                    
V 15 -18672.394300 -20521.900442  -3497.034641      0.036210                    
P 16  26746.278732   1243.553137  -1636.580827   -465.851885                    
V 16  -1690.903846   2312.144804 -31440.471041      0.050567                    
P 17 -13247.390376 -22945.221552    859.706073    722.955077                    
V 17   2443.847489   -814.971707  32080.710843      0.004712                    
P 18  -2691.202479  23563.366031  11776.985091   -388.808465                    
V 18  -8553.416612  12501.670424 -27138.438935     -0.132531                    
P 19 -16731.692232 -19396.550786  -7852.691940    360.106233                    
V 19  -2866.731215  -9363.168931  29708.281067      0.051521                    
P 20 -25046.242665    218.149397  -8508.603108    416.274572                    
V 20   9798.896901  -5733.700709 -29053.829173     -0.020277                    
P 21  16447.407073 -14254.987854  15096.168166    150.429762                    
V 21  -4110.486773  18324.068448  23456.789369     -0.006391                    
P 22 -17950.088318 -11399.618079  16204.063930    138.220683                    
V 22  19845.226577  -1748.080874  21636.241497     -0.075059                    
P 23   1363.677245  14850.653219  21980.512330     57.347380                    
V 23 -27692.721569   3035.956893   -497.960586      0.047767                    
P 24 -14821.836539  19190.705102   9958.171508   -295.129397                    
V 24   1141.135621 -13815.461057  27730.743799     -0.113768                    
P 25  -6849.889917  15489.725607 -20713.106226    463.177661                    
V 25 -25669.212193   1461.613118   9993.336803      0.021375                    
P 26  23182.821572   5534.606994 -12196.170831    232.217233                    
V 26 -14628.429292   5072.104736 -25407.687940     -0.015460                    
P 27  19221.241123   7133.678333  16853.588224    -25.184982                    
V 27  11245.159867  18636.158149 -20006.703337     -0.066845                    
P 28   9372.163560  14241.068866 -20388.574737     74.464819                    
V 28 -11083.273232  23360.974651  11232.694498     -0.037260                    
P 29    554.979288  21584.539529 -15447.089627   -608.089634                    
V 29 -11386.644346 -15968.040128 -22892.632853     -0.006809                    
P 30  -4217.802103 -20042.598013  16892.886752   -494.978109                    
V 30  11347.924742 -18292.829555 -19269.777543      0.031211                    
P 31  15402.380349   3379.312727 -21593.657816   -222.126028                    
V 31 -11816.603184  24244.563630  -4256.919486     -0.006043                    
P 32  16904.165922  20405.941029  -2844.867209   -543.770656                    
V 32     43.275064   4643.275683  31346.785694     -0.067257                    
EOF
